{
    "links": {
        "self": "http://www.neowsapp.com/rest/v1/neo/3767312?api_key=iIulBulltgU6a56xZRHN4H3l9WmuAYTsLGpBGhQ2"
    },
    "id": "3767312",
    "neo_reference_id": "3767312",
    "name": "(2017 BT32)",
    "designation": "2017 BT32",
    "nasa_jpl_url": "http://ssd.jpl.nasa.gov/sbdb.cgi?sstr=3767312",
    "absolute_magnitude_h": 23.7,
    "estimated_diameter": {
        "kilometers": {
            "estimated_diameter_min": 0.0483676488,
            "estimated_diameter_max": 0.1081533507
        },
        "meters": {
            "estimated_diameter_min": 48.3676488219,
            "estimated_diameter_max": 108.1533506775
        },
        "miles": {
            "estimated_diameter_min": 0.0300542543,
            "estimated_diameter_max": 0.0672033557
        },
        "feet": {
            "estimated_diameter_min": 158.6865169607,
            "estimated_diameter_max": 354.8338390368
        }
    },
    "is_potentially_hazardous_asteroid": false,
    "close_approach_data": [
        {
            "close_approach_date": "2009-01-14",
            "close_approach_date_full": "2009-Jan-14 23:36",
            "epoch_date_close_approach": 1231976160000,
            "relative_velocity": {
                "kilometers_per_second": "14.0984538539",
                "kilometers_per_hour": "50754.4338740573",
                "miles_per_hour": "31536.8314257996"
            },
            "miss_distance": {
                "astronomical": "0.3297388668",
                "lunar": "128.2684191852",
                "kilometers": "49328232.129493716",
                "miles": "30651142.1329206408"
            },
            "orbiting_body": "Earth"
        },
        {
            "close_approach_date": "2014-10-26",
            "close_approach_date_full": "2014-Oct-26 03:52",
            "epoch_date_close_approach": 1414295520000,
            "relative_velocity": {
                "kilometers_per_second": "10.3908841291",
                "kilometers_per_hour": "37407.1828647888",
                "miles_per_hour": "23243.3687084017"
            },
            "miss_distance": {
                "astronomical": "0.0800313799",
                "lunar": "31.1322067811",
                "kilometers": "11972523.966200813",
                "miles": "7439381.4238966994"
            },
            "orbiting_body": "Mars"
        },
        {
            "close_approach_date": "2017-01-24",
            "close_approach_date_full": "2017-Jan-24 07:13",
            "epoch_date_close_approach": 1485241980000,
            "relative_velocity": {
                "kilometers_per_second": "11.6438648645",
                "kilometers_per_hour": "41917.9135120812",
                "miles_per_hour": "26046.1613153262"
            },
            "miss_distance": {
                "astronomical": "0.233857239",
                "lunar": "90.970465971",
                "kilometers": "34984544.83848093",
                "miles": "21738388.140179634"
            },
            "orbiting_body": "Earth"
        },
        {
            "close_approach_date": "2019-08-04",
            "close_approach_date_full": "2019-Aug-04 19:35",
            "epoch_date_close_approach": 1564947300000,
            "relative_velocity": {
                "kilometers_per_second": "11.8165839495",
                "kilometers_per_hour": "42539.7022180276",
                "miles_per_hour": "26432.5166365294"
            },
            "miss_distance": {
                "astronomical": "0.4567540904",
                "lunar": "177.6773411656",
                "kilometers": "68329439.037627448",
                "miles": "42457944.6169288624"
            },
            "orbiting_body": "Earth"
        }
    ],
    "orbital_data": {
        "orbit_id": "3",
        "orbit_determination_date": "2017-04-06 08:20:33",
        "first_observation_date": "2017-01-27",
        "last_observation_date": "2017-02-05",
        "data_arc_in_days": 9,
        "observations_used": 15,
        "orbit_uncertainty": "8",
        "minimum_orbit_intersection": ".211751",
        "jupiter_tisserand_invariant": "4.754",
        "epoch_osculation": "2457781.5",
        "eccentricity": ".175919740916023",
        "semi_major_axis": "1.360698251433751",
        "inclination": "22.48185575788469",
        "ascending_node_longitude": "309.4722245486485",
        "orbital_period": "579.7505467927333",
        "perihelion_distance": "1.12132456757664",
        "perihelion_argument": "120.5217710712974",
        "aphelion_distance": "1.600071935290862",
        "perihelion_time": "2457710.001967963282",
        "mean_anomaly": "44.39718371222258",
        "mean_motion": ".6209567235280308",
        "equinox": "J2000",
        "orbit_class": {
            "orbit_class_type": "AMO",
            "orbit_class_description": "Near-Earth asteroid orbits similar to that of 1221 Amor",
            "orbit_class_range": "1.017 AU < q (perihelion) < 1.3 AU"
        }
    },
    "is_sentry_object": false
}